IRIDIUM 106             
1 41917U 17003A   26199.70062823  .00000069  00000+0  17430-4 0  9991
2 41917  86.3938  75.3785 0002325  93.5262 266.6200 14.34217762497723
IRIDIUM 103             
1 41918U 17003B   26199.68794192  .00000009  00000+0 -39606-5 0  9995
2 41918  86.3937  75.2833 0001876  84.6437 275.4972 14.34217599497745
IRIDIUM 109             
1 41919U 17003C   26199.69428472 -.00000021  00000+0 -14630-4 0  9996
2 41919  86.3940  75.3403 0002032  85.3715 274.7713 14.34217435497717
IRIDIUM 102             
1 41920U 17003D   26199.73234029  .00000112  00000+0  32784-4 0  9995
2 41920  86.3937  75.2476 0002270  83.4042 276.7412 14.34217311497801
IRIDIUM 105             
1 41921U 17003E   26199.06302053  .00000103  00000+0  29817-4 0  9998
2 41921  86.3943  43.9554 0002103  81.4042 278.7392 14.34217460499560
IRIDIUM 104             
1 41922U 17003F   26199.88456279  .00000070  00000+0  17918-4 0  9991
2 41922  86.3938  75.2273 0001947  79.5230 280.6185 14.34217525497813
IRIDIUM 114             
1 41923U 17003G   26199.89090582  .00000128  00000+0  38642-4 0  9995
2 41923  86.3938  75.2077 0002052  84.9975 275.1455 14.34218236497796
IRIDIUM 108             
1 41924U 17003H   26199.84942703  .00000007  00000+0 -45132-5 0  9992
2 41924  86.3935  43.5144 0002229  85.8431 274.3019 14.34217499499643
IRIDIUM 112             
1 41925U 17003J   26199.73868365  .00000081  00000+0  21926-4 0  9997
2 41925  86.3934  75.1117 0002155  84.4172 275.7270 14.34217381497797
IRIDIUM 111             
1 41926U 17003K   26199.72599800  .00000025  00000+0  20047-5 0  9994
2 41926  86.3936  75.1885 0002203  86.7733 273.3715 14.34217788497771
IRIDIUM 113             
1 42803U 17039A   26199.77573118  .00000055  00000+0  12659-4 0  9999
2 42803  86.3992 308.9768 0002130  93.0152 267.1288 14.34217629475710
IRIDIUM 123             
1 42804U 17039B   26199.81720987  .00000003  00000+0 -58992-5 0  9998
2 42804  86.3991 340.4157 0002049  97.3462 262.7966 14.34217216474482
IRIDIUM 120             
1 42805U 17039C   26199.76938933  .00000043  00000+0  82677-5 0  9995
2 42805  86.3981 308.7572 0002374  98.8032 261.3432 14.34217010475701
IRIDIUM 115             
1 42806U 17039D   26199.80278384  .00000184  00000+0  48636-4 0  9990
2 42806  86.4518 308.8769 0002304  99.4937 260.6524 14.43278770478822
IRIDIUM 118             
1 42807U 17039E   26199.84892304  .00000127  00000+0  38127-4 0  9990
2 42807  86.3997 340.3999 0002202  92.3544 267.7904 14.34218302474485
IRIDIUM 117             
1 42808U 17039F   26199.79818167  .00000066  00000+0  16561-4 0  9990
2 42808  86.3995 340.3785 0002156  94.1120 266.0322 14.34217687474509
IRIDIUM 126             
1 42809U 17039G   26199.82355243  .00000026  00000+0  22975-5 0  9999
2 42809  86.3991 340.4200 0001973  93.0094 267.1327 14.34217668474486
IRIDIUM 124             
1 42810U 17039H   26199.73656402  .00000103  00000+0  24667-4 0  9997
2 42810  86.4479 277.1679 0002247  96.9153 263.2303 14.43274853479664
IRIDIUM 128             
1 42811U 17039J   26199.46545127  .00000096  00000+0  27184-4 0  9997
2 42811  86.3969  12.0693 0002282  93.5669 266.5788 14.34217649474460
IRIDIUM 121             
1 42812U 17039K   26199.77281242  .00000002  00000+0 -64517-5 0  9997
2 42812  86.3997 340.4688 0002255  93.1057 267.0397 14.34217428474356
IRIDIUM 133             
1 42955U 17061A   26199.42739321  .00000100  00000+0  28776-4 0  9992
2 42955  86.3969  12.2038 0002213  91.4738 268.6712 14.34217930459255
IRIDIUM 100             
1 42956U 17061B   26199.76989426  .00000097  00000+0  27629-4 0  9994
2 42956  86.3968  11.9783 0002219  90.7999 269.3451 14.34218061459305
IRIDIUM 122             
1 42957U 17061C   26199.38933606  .00000048  00000+0  99196-5 0  9997
2 42957  86.3970  12.1377 0002125  91.1007 269.0432 14.34216449459250
IRIDIUM 129             
1 42958U 17061D   26199.48447669  .00000058  00000+0  13489-4 0  9999
2 42958  86.3969  12.1654 0002101  88.2967 271.8470 14.34215871459287
IRIDIUM 119             
1 42959U 17061E   26199.03415462  .00000080  00000+0  21678-4 0  9991
2 42959  86.3970  12.3494 0002114  91.4855 268.6583 14.34217346459233
IRIDIUM 107             
1 42960U 17061F   26199.47179077  .00000041  00000+0  75833-5 0  9990
2 42960  86.3971  12.1880 0002161  97.1712 262.9729 14.34217470459305
IRIDIUM 132             
1 42961U 17061G   26199.47813531  .00000091  00000+0  25380-4 0  9997
2 42961  86.3970  12.1646 0002178  90.7869 269.3576 14.34217423459304
IRIDIUM 136             
1 42962U 17061H   26199.71915347  .00000093  00000+0  26310-4 0  9999
2 42962  86.3971  12.0707 0002256  90.6720 269.4734 14.34218009459358
IRIDIUM 139             
1 42963U 17061J   26199.72549709  .00000091  00000+0  25526-4 0  9992
2 42963  86.3973  12.1304 0002265  92.4370 267.7085 14.34217920459368
IRIDIUM 125             
1 42964U 17061K   26199.71281058  .00000089  00000+0  24699-4 0  9999
2 42964  86.3974  12.1974 0001704  97.2939 262.8451 14.34218206459376
IRIDIUM 135             
1 43070U 17083A   26199.82647176  .00000000  00000+0 -71600-5 0  9990
2 43070  86.3984 308.7903 0002116  95.2465 264.8972 14.34217719448682
